ONEWEB-0323             
1 49106U 21075AH  24229.14471044  .00000093  00000+0  22274-3 0  9990
2 49106  87.8930 124.1063 0002068  77.9673 282.1687 13.12444303147662
ONEWEB-0329             
1 49107U 21075AJ  24229.19680047  .00000103  00000+0  23156-3 0  9993
2 49107  87.9185 139.3223 0002129  80.3641 279.7731 13.17649887146348
ONEWEB-0292             
1 49186U 21083A   24228.87764229  .00000347  00000+0  91658-3 0  9990
2 49186  87.8885  93.6654 0002032  77.7500 282.3857 13.13467515142930
ONEWEB-0303             
1 49187U 21083B   24229.16367186 -.00000320  00000+0 -84477-3 0  9999
2 49187  87.9112 108.8446 0002052  76.2009 283.9352 13.18685362142959
ONEWEB-0306             
1 49188U 21083C   24229.15419514  .00000142  00000+0  32852-3 0  9992
2 49188  87.9112 108.8333 0001689  82.1909 277.9415 13.18687130142997
ONEWEB-0307             
1 49189U 21083D   24228.87208087 -.00000037  00000+0 -13668-3 0  9991
2 49189  87.8886  93.6672 0001664  93.1709 266.9611 13.13469822142936
